start=new Date('2022-06-03T00:00:00.000Z').valueOf();
sats=[{"ARG_OF_PERICENTER":"304.0896","MEAN_ELEMENT_THEORY":"SGP4","MEAN_MOTION_DDOT":"0.0000000000000","DECAY_DATE":null,"OBJECT_TYPE":"PAYLOAD","TIME_SYSTEM":"UTC","PERIAPSIS":"353.928","LAUNCH_DATE":"2022-05-13","SEMIMAJOR_AXIS":"6734.616","RCS_SIZE":"LARGE","CLASSIFICATION_TYPE":"U","APOAPSIS":"359.034","REF_FRAME":"TEME","OBJECT_ID":"2022-051AA","OBJECT_NAME":"STARLINK-3943","RA_OF_ASC_NODE":"199.5309","TLE_LINE2":"2 52557  53.2176 199.5309 0003791 304.0896 358.7681 15.70845558  3511","NORAD_CAT_ID":"52557","EPOCH":"2022-06-01T20:00:01.000224","CENTER_NAME":"EARTH","ECCENTRICITY":"0.00037910","MEAN_ANOMALY":"358.7681","INCLINATION":"53.2176","TLE_LINE1":"1 52557U 22051AA  22152.83334491 -.00706672  00000-0 -60400-2 0  9993","MEAN_MOTION_DOT":"-0.00706672","PERIOD":"91.670","COUNTRY_CODE":"US","MEAN_MOTION":"15.70845558","BSTAR":"-0.00604000000000","GP_ID":"205189720","REV_AT_EPOCH":"351","ELEMENT_SET_NO":"999","EPHEMERIS_TYPE":"0","SITE":"AFWTR","FILE":"3477939"},{"ARG_OF_PERICENTER":"16.7661","MEAN_ELEMENT_THEORY":"SGP4","MEAN_MOTION_DDOT":"0.0000000000000","DECAY_DATE":null,"OBJECT_TYPE":"PAYLOAD","TIME_SYSTEM":"UTC","PERIAPSIS":"348.014","LAUNCH_DATE":"2022-05-13","CLASSIFICATION_TYPE":"U","RCS_SIZE":"MEDIUM","SEMIMAJOR_AXIS":"6727.741","APOAPSIS":"351.199","OBJECT_ID":"2022-051AB","REF_FRAME":"TEME","OBJECT_NAME":"STARLINK-3954","RA_OF_ASC_NODE":"199.5152","NORAD_CAT_ID":"52558","TLE_LINE2":"2 52558  53.2170 199.5152 0002367  16.7661 295.1176 15.73253992  1303","EPOCH":"2022-06-01T20:00:01.000224","CENTER_NAME":"EARTH","ECCENTRICITY":"0.00023670","MEAN_ANOMALY":"295.1176","INCLINATION":"53.2170","TLE_LINE1":"1 52558U 22051AB  22152.83334491 -.00055334  00000-0 -39145-3 0  9999","MEAN_MOTION_DOT":"-0.00055334","PERIOD":"91.530","COUNTRY_CODE":"US","MEAN_MOTION":"15.73253992","BSTAR":"-0.00039145000000","GP_ID":"205127773","REV_AT_EPOCH":"130","ELEMENT_SET_NO":"999","SITE":"AFWTR","EPHEMERIS_TYPE":"0","FILE":"3476255"},{"APOAPSIS":"351.465","LAUNCH_DATE":"2022-05-13","SEMIMAJOR_AXIS":"6727.920","RCS_SIZE":"LARGE","CLASSIFICATION_TYPE":"U","PERIAPSIS":"348.105","TIME_SYSTEM":"UTC","OBJECT_TYPE":"PAYLOAD","DECAY_DATE":null,"MEAN_MOTION_DDOT":"0.0000000000000","ARG_OF_PERICENTER":"13.8659","MEAN_ELEMENT_THEORY":"SGP4","ECCENTRICITY":"0.00024970","MEAN_ANOMALY":"296.9271","CENTER_NAME":"EARTH","EPOCH":"2022-06-01T20:00:01.000224","TLE_LINE2":"2 52559  53.2165 199.5167 0002497  13.8659 296.9271 15.73191142  1306","NORAD_CAT_ID":"52559","OBJECT_NAME":"STARLINK-3953","RA_OF_ASC_NODE":"199.5167","OBJECT_ID":"2022-051AC","REF_FRAME":"TEME","GP_ID":"205128326","BSTAR":"-0.00002699700000","MEAN_MOTION":"15.73191142","COUNTRY_CODE":"US","PERIOD":"91.534","MEAN_MOTION_DOT":"-0.00004408","TLE_LINE1":"1 52559U 22051AC  22152.83334491 -.00004408  00000-0 -26997-4 0  9998","INCLINATION":"53.2165","FILE":"3476255","SITE":"AFWTR","EPHEMERIS_TYPE":"0","ELEMENT_SET_NO":"999","REV_AT_EPOCH":"130"},{"MEAN_ANOMALY":"334.5434","ECCENTRICITY":"0.00026330","CENTER_NAME":"EARTH","EPOCH":"2022-06-02T14:29:32.905248","TLE_LINE2":"2 52560  53.2187 195.6984 0002633  25.5716 334.5434 15.73220487  3578","NORAD_CAT_ID":"52560","OBJECT_ID":"2022-051AD","REF_FRAME":"TEME","OBJECT_NAME":"STARLINK-3956","RA_OF_ASC_NODE":"195.6984","SEMIMAJOR_AXIS":"6727.837","LAUNCH_DATE":"2022-05-13","RCS_SIZE":"LARGE","CLASSIFICATION_TYPE":"U","APOAPSIS":"351.473","PERIAPSIS":"347.930","TIME_SYSTEM":"UTC","DECAY_DATE":null,"OBJECT_TYPE":"PAYLOAD","MEAN_MOTION_DDOT":"0.0000000000000","MEAN_ELEMENT_THEORY":"SGP4","ARG_OF_PERICENTER":"25.5716","SITE":"AFWTR","EPHEMERIS_TYPE":"0","FILE":"3477983","ELEMENT_SET_NO":"999","REV_AT_EPOCH":"357","MEAN_MOTION":"15.73220487","BSTAR":"-0.00000432230000","GP_ID":"205214955","MEAN_MOTION_DOT":"-0.00001230","COUNTRY_CODE":"US","PERIOD":"91.532","INCLINATION":"53.2187","TLE_LINE1":"1 52560U 22051AD  22153.60385307 -.00001230  00000-0 -43223-5 0  9990"},{"OBJECT_ID":"2022-051AE","REF_FRAME":"TEME","RA_OF_ASC_NODE":"199.9859","OBJECT_NAME":"STARLINK-3955","NORAD_CAT_ID":"52561","TLE_LINE2":"2 52561  53.2174 199.9859 0001511  36.0172  20.4444 15.57261455  3518","EPOCH":"2022-06-01T20:00:01.000224","CENTER_NAME":"EARTH","ECCENTRICITY":"0.00015110","MEAN_ANOMALY":"20.4444","ARG_OF_PERICENTER":"36.0172","MEAN_ELEMENT_THEORY":"SGP4","OBJECT_TYPE":"PAYLOAD","DECAY_DATE":null,"MEAN_MOTION_DDOT":"0.0000000000000","TIME_SYSTEM":"UTC","PERIAPSIS":"394.565","LAUNCH_DATE":"2022-05-13","RCS_SIZE":"LARGE","SEMIMAJOR_AXIS":"6773.724","CLASSIFICATION_TYPE":"U","APOAPSIS":"396.612","REV_AT_EPOCH":"351","ELEMENT_SET_NO":"999","SITE":"AFWTR","EPHEMERIS_TYPE":"0","FILE":"3476701","INCLINATION":"53.2174","TLE_LINE1":"1 52561U 22051AE  22152.83334491 -.00836660  00000-0 -12305-1 0  9999","MEAN_MOTION_DOT":"-0.00836660","PERIOD":"92.470","COUNTRY_CODE":"US","MEAN_MOTION":"15.57261455","BSTAR":"-0.01230500000000","GP_ID":"205138047"},{"ECCENTRICITY":"0.00027000","MEAN_ANOMALY":"301.7317","EPOCH":"2022-06-01T20:00:01.000224","CENTER_NAME":"EARTH","TLE_LINE2":"2 52562  53.2168 199.5090 0002700  13.2211 301.7317 15.73193980  1301","NORAD_CAT_ID":"52562","RA_OF_ASC_NODE":"199.5090","OBJECT_NAME":"STARLINK-3957","OBJECT_ID":"2022-051AF","REF_FRAME":"TEME","APOAPSIS":"351.594","RCS_SIZE":"LARGE","LAUNCH_DATE":"2022-05-13","SEMIMAJOR_AXIS":"6727.912","CLASSIFICATION_TYPE":"U","PERIAPSIS":"347.961","TIME_SYSTEM":"UTC","ARG_OF_PERICENTER":"13.2211","MEAN_ELEMENT_THEORY":"SGP4","DECAY_DATE":null,"OBJECT_TYPE":"PAYLOAD","MEAN_MOTION_DDOT":"0.0000000000000","FILE":"3476255","SITE":"AFWTR","EPHEMERIS_TYPE":"0","ELEMENT_SET_NO":"999","REV_AT_EPOCH":"130","BSTAR":"0.00008041500000","GP_ID":"205128116","MEAN_MOTION":"15.73193980","PERIOD":"91.534","COUNTRY_CODE":"US","MEAN_MOTION_DOT":"0.00010677","TLE_LINE1":"1 52562U 22051AF  22152.83334491  .00010677  00000-0  80415-4 0  9990","INCLINATION":"53.2168"},{"MEAN_ANOMALY":"329.3733","ECCENTRICITY":"0.00019100","EPOCH":"2022-06-02T17:20:14.479584","CENTER_NAME":"EARTH","NORAD_CAT_ID":"52563","TLE_LINE2":"2 52563  53.2176 195.6967 0001910  30.7392 329.3733 15.56321973  3583","OBJECT_ID":"2022-051AG","REF_FRAME":"TEME","RA_OF_ASC_NODE":"195.6967","OBJECT_NAME":"STARLINK-3942","CLASSIFICATION_TYPE":"U","LAUNCH_DATE":"2022-05-13","RCS_SIZE":"LARGE","SEMIMAJOR_AXIS":"6776.450","APOAPSIS":"399.609","PERIAPSIS":"397.020","TIME_SYSTEM":"UTC","ARG_OF_PERICENTER":"30.7392","MEAN_ELEMENT_THEORY":"SGP4","MEAN_MOTION_DDOT":"0.0000000000000","DECAY_DATE":null,"OBJECT_TYPE":"PAYLOAD","SITE":"AFWTR","EPHEMERIS_TYPE":"0","FILE":"3477983","ELEMENT_SET_NO":"999","REV_AT_EPOCH":"358","MEAN_MOTION":"15.56321973","GP_ID":"205214727","BSTAR":"-0.00617730000000","MEAN_MOTION_DOT":"-0.00420631","PERIOD":"92.526","COUNTRY_CODE":"US","INCLINATION":"53.2176","TLE_LINE1":"1 52563U 22051AG  22153.72238981 -.00420631  00000-0 -61773-2 0  9998"},{"APOAPSIS":"399.220","LAUNCH_DATE":"2022-05-13","RCS_SIZE":"LARGE","CLASSIFICATION_TYPE":"U","SEMIMAJOR_AXIS":"6776.012","PERIAPSIS":"396.535","TIME_SYSTEM":"UTC","OBJECT_TYPE":"PAYLOAD","DECAY_DATE":null,"MEAN_MOTION_DDOT":"0.0000000000000","MEAN_ELEMENT_THEORY":"SGP4","ARG_OF_PERICENTER":"9.4722","MEAN_ANOMALY":"350.6328","ECCENTRICITY":"0.00019810","CENTER_NAME":"EARTH","EPOCH":"2022-06-02T17:19:16.474080","TLE_LINE2":"2 52564  53.2215 195.7111 0001981   9.4722 350.6328 15.56472567  3581","NORAD_CAT_ID":"52564","RA_OF_ASC_NODE":"195.7111","OBJECT_NAME":"STARLINK-3959","REF_FRAME":"TEME","OBJECT_ID":"2022-051AH","BSTAR":"-0.00616970000000","GP_ID":"205214620","MEAN_MOTION":"15.56472567","COUNTRY_CODE":"US","PERIOD":"92.517","MEAN_MOTION_DOT":"-0.00422391","TLE_LINE1":"1 52564U 22051AH  22153.72171845 -.00422391  00000-0 -61697-2 0  9994","INCLINATION":"53.2215","FILE":"3477983","SITE":"AFWTR","EPHEMERIS_TYPE":"0","ELEMENT_SET_NO":"999","REV_AT_EPOCH":"358"},{"TLE_LINE1":"1 52565U 22051AJ  22152.83334491 -.00021375  00000-0 -14805-3 0  9991","INCLINATION":"53.2168","PERIOD":"91.532","COUNTRY_CODE":"US","MEAN_MOTION_DOT":"-0.00021375","GP_ID":"205128408","BSTAR":"-0.00014805000000","MEAN_MOTION":"15.73227296","REV_AT_EPOCH":"130","ELEMENT_SET_NO":"999","FILE":"3476255","EPHEMERIS_TYPE":"0","SITE":"AFWTR","ARG_OF_PERICENTER":"18.3379","MEAN_ELEMENT_THEORY":"SGP4","DECAY_DATE":null,"MEAN_MOTION_DDOT":"0.0000000000000","OBJECT_TYPE":"PAYLOAD","TIME_SYSTEM":"UTC","PERIAPSIS":"348.008","APOAPSIS":"351.357","RCS_SIZE":"MEDIUM","LAUNCH_DATE":"2022-05-13","SEMIMAJOR_AXIS":"6727.817","CLASSIFICATION_TYPE":"U","RA_OF_ASC_NODE":"199.5090","OBJECT_NAME":"STARLINK-3911","OBJECT_ID":"2022-051AJ","REF_FRAME":"TEME","NORAD_CAT_ID":"52565","TLE_LINE2":"2 52565  53.2168 199.5090 0002489  18.3379 296.0152 15.73227296  1300","EPOCH":"2022-06-01T20:00:01.000224","CENTER_NAME":"EARTH","ECCENTRICITY":"0.00024890","MEAN_ANOMALY":"296.0152"},{"ELEMENT_SET_NO":"999","EPHEMERIS_TYPE":"0","SITE":"AFWTR","FILE":"3477983","REV_AT_EPOCH":"360","MEAN_MOTION":"15.56131155","BSTAR":"-0.00584450000000","GP_ID":"205214513","INCLINATION":"53.2197","TLE_LINE1":"1 52566U 22051AK  22153.85007400 -.00396384  00000-0 -58445-2 0  9994","MEAN_MOTION_DOT":"-0.00396384","PERIOD":"92.537","COUNTRY_CODE":"US","EPOCH":"2022-06-02T20:24:06.393600","CENTER_NAME":"EARTH","ECCENTRICITY":"0.00021430","MEAN_ANOMALY":"324.5504","OBJECT_ID":"2022-051AK","REF_FRAME":"TEME","OBJECT_NAME":"STARLINK-3938","RA_OF_ASC_NODE":"195.1312","NORAD_CAT_ID":"52566","TLE_LINE2":"2 52566  53.2197 195.1312 0002143  35.5651 324.5504 15.56131155  3605","PERIAPSIS":"397.416","LAUNCH_DATE":"2022-05-13","RCS_SIZE":"LARGE","SEMIMAJOR_AXIS":"6777.003","CLASSIFICATION_TYPE":"U","APOAPSIS":"400.321","ARG_OF_PERICENTER":"35.5651","MEAN_ELEMENT_THEORY":"SGP4","OBJECT_TYPE":"PAYLOAD","DECAY_DATE":null,"MEAN_MOTION_DDOT":"0.0000000000000","TIME_SYSTEM":"UTC"}];
